UNKNOWN                 
1 81438U          26027.38657959  .00004092  00000+0  59462-2 0  9995
2 81438 100.3171 266.0585 0057821 324.2738  35.4534 13.54999020598124
UNKNOWN                 
1 81439U          26034.40240415 -.00000076  00000+0 -66711-4 0  9999
2 81439  67.1605  39.9638 0598174 171.0502 190.1772 12.62640149268547
UNKNOWN                 
1 81449U          26033.46231086  .00094871  00000+0  58051-2 0  9999
2 81449  66.7913 200.1492 0018959  65.3978 294.9133 15.09514990641339
UNKNOWN                 
1 81478U          26034.23800983  .00003534  00000+0  12712-2 0  9995
2 81478  98.9521 312.5058 0143870 205.7917 308.6793 14.28811784630438
UNKNOWN                 
1 81488U          26031.89535141  .00000120  00000+0  23471-3 0  9999
2 81488  99.9976 270.2972 0043915 235.2174 139.4797 13.56537177603436
UNKNOWN                 
1 81497U          26034.48644347  .00003924  00000+0  35266-2 0  9995
2 81497 100.3000 299.1953 0027411 241.4899 302.7628 13.84621138223591
UNKNOWN                 
1 81499U          26034.65275444  .00003087  00000+0  84694-3 0  9994
2 81499  74.0499 122.2213 0002892 265.9424  94.1404 14.47497953490077
UNKNOWN                 
1 81535U          26033.18039042  .00000813  00000+0  34898-3 0  9999
2 81535  98.1956 116.1865 0234369   0.0938   0.0241 14.13571924394669
UNKNOWN                 
1 81536U          26032.10577847  .00000532  00000+0  35118-2 0  9994
2 81536 101.9644 258.7735 0020984 207.6414 307.9521 12.55935859558135
UNKNOWN                 
1 81537U          26028.66987827  .00000285  00000+0  19268-3 0  9998
2 81537  71.0404  12.1537 0074537  81.4482 279.5074 14.07128740627063
UNKNOWN                 
1 81599U          26033.37290025  .00000579  00000+0  11330-2 0  9994
2 81599  67.2939 169.2716 0245477  46.3240 345.7731 13.31529639591951
UNKNOWN                 
1 81605U          26034.32062344 -.00000491  00000+0 -15683-2 0  9999
2 81605  56.4380  64.5886 0167505 210.6782 148.4267 12.81549431192940
