CCSDS_OMM_VERS = 2.0
CREATION_DATE  = 
ORIGINATOR     = 

OBJECT_NAME    = UNKNOWN
OBJECT_ID      = 
CENTER_NAME    = EARTH
REF_FRAME      = TEME
TIME_SYSTEM    = UTC
MEAN_ELEMENT_THEORY = SGP/SGP4

EPOCH          = 2026-01-27T09:16:40.476576
MEAN_MOTION    = 13.54999020
ECCENTRICITY   = .0057821
INCLINATION    = 100.3171
RA_OF_ASC_NODE = 266.0585
ARG_OF_PERICENTER = 324.2738
MEAN_ANOMALY   = 35.4534

EPHEMERIS_TYPE = 0
CLASSIFICATION_TYPE = U
NORAD_CAT_ID   = 81438
ELEMENT_SET_NO = 999
REV_AT_EPOCH   = 59812
BSTAR          = .59462E-2
MEAN_MOTION_DOT = .4092E-4
MEAN_MOTION_DDOT = 0

CCSDS_OMM_VERS = 2.0
CREATION_DATE  = 
ORIGINATOR     = 

OBJECT_NAME    = UNKNOWN
OBJECT_ID      = 
CENTER_NAME    = EARTH
REF_FRAME      = TEME
TIME_SYSTEM    = UTC
MEAN_ELEMENT_THEORY = SGP/SGP4

EPOCH          = 2026-02-03T09:39:27.718560
MEAN_MOTION    = 12.62640149
ECCENTRICITY   = .0598174
INCLINATION    = 67.1605
RA_OF_ASC_NODE = 39.9638
ARG_OF_PERICENTER = 171.0502
MEAN_ANOMALY   = 190.1772

EPHEMERIS_TYPE = 0
CLASSIFICATION_TYPE = U
NORAD_CAT_ID   = 81439
ELEMENT_SET_NO = 999
REV_AT_EPOCH   = 26854
BSTAR          = -.66711E-4
MEAN_MOTION_DOT = -.76E-6
MEAN_MOTION_DDOT = 0

CCSDS_OMM_VERS = 2.0
CREATION_DATE  = 
ORIGINATOR     = 

OBJECT_NAME    = UNKNOWN
OBJECT_ID      = 
CENTER_NAME    = EARTH
REF_FRAME      = TEME
TIME_SYSTEM    = UTC
MEAN_ELEMENT_THEORY = SGP/SGP4

EPOCH          = 2026-02-02T11:05:43.658304
MEAN_MOTION    = 15.09514990
ECCENTRICITY   = .0018959
INCLINATION    = 66.7913
RA_OF_ASC_NODE = 200.1492
ARG_OF_PERICENTER = 65.3978
MEAN_ANOMALY   = 294.9133

EPHEMERIS_TYPE = 0
CLASSIFICATION_TYPE = U
NORAD_CAT_ID   = 81449
ELEMENT_SET_NO = 999
REV_AT_EPOCH   = 64133
BSTAR          = .58051E-2
MEAN_MOTION_DOT = .94871E-3
MEAN_MOTION_DDOT = 0

CCSDS_OMM_VERS = 2.0
CREATION_DATE  = 
ORIGINATOR     = 

OBJECT_NAME    = UNKNOWN
OBJECT_ID      = 
CENTER_NAME    = EARTH
REF_FRAME      = TEME
TIME_SYSTEM    = UTC
MEAN_ELEMENT_THEORY = SGP/SGP4

EPOCH          = 2026-02-03T05:42:44.049312
MEAN_MOTION    = 14.28811784
ECCENTRICITY   = .014387
INCLINATION    = 98.9521
RA_OF_ASC_NODE = 312.5058
ARG_OF_PERICENTER = 205.7917
MEAN_ANOMALY   = 308.6793

EPHEMERIS_TYPE = 0
CLASSIFICATION_TYPE = U
NORAD_CAT_ID   = 81478
ELEMENT_SET_NO = 999
REV_AT_EPOCH   = 63043
BSTAR          = .12712E-2
MEAN_MOTION_DOT = .3534E-4
MEAN_MOTION_DDOT = 0

CCSDS_OMM_VERS = 2.0
CREATION_DATE  = 
ORIGINATOR     = 

OBJECT_NAME    = UNKNOWN
OBJECT_ID      = 
CENTER_NAME    = EARTH
REF_FRAME      = TEME
TIME_SYSTEM    = UTC
MEAN_ELEMENT_THEORY = SGP/SGP4

EPOCH          = 2026-01-31T21:29:18.361824
MEAN_MOTION    = 13.56537177
ECCENTRICITY   = .0043915
INCLINATION    = 99.9976
RA_OF_ASC_NODE = 270.2972
ARG_OF_PERICENTER = 235.2174
MEAN_ANOMALY   = 139.4797

EPHEMERIS_TYPE = 0
CLASSIFICATION_TYPE = U
NORAD_CAT_ID   = 81488
ELEMENT_SET_NO = 999
REV_AT_EPOCH   = 60343
BSTAR          = .23471E-3
MEAN_MOTION_DOT = .12E-5
MEAN_MOTION_DDOT = 0

CCSDS_OMM_VERS = 2.0
CREATION_DATE  = 
ORIGINATOR     = 

OBJECT_NAME    = UNKNOWN
OBJECT_ID      = 
CENTER_NAME    = EARTH
REF_FRAME      = TEME
TIME_SYSTEM    = UTC
MEAN_ELEMENT_THEORY = SGP/SGP4

EPOCH          = 2026-02-03T11:40:28.715808
MEAN_MOTION    = 13.84621138
ECCENTRICITY   = .0027411
INCLINATION    = 100.3000
RA_OF_ASC_NODE = 299.1953
ARG_OF_PERICENTER = 241.4899
MEAN_ANOMALY   = 302.7628

EPHEMERIS_TYPE = 0
CLASSIFICATION_TYPE = U
NORAD_CAT_ID   = 81497
ELEMENT_SET_NO = 999
REV_AT_EPOCH   = 22359
BSTAR          = .35266E-2
MEAN_MOTION_DOT = .3924E-4
MEAN_MOTION_DDOT = 0

CCSDS_OMM_VERS = 2.0
CREATION_DATE  = 
ORIGINATOR     = 

OBJECT_NAME    = UNKNOWN
OBJECT_ID      = 
CENTER_NAME    = EARTH
REF_FRAME      = TEME
TIME_SYSTEM    = UTC
MEAN_ELEMENT_THEORY = SGP/SGP4

EPOCH          = 2026-02-03T15:39:57.983616
MEAN_MOTION    = 14.47497953
ECCENTRICITY   = .0002892
INCLINATION    = 74.0499
RA_OF_ASC_NODE = 122.2213
ARG_OF_PERICENTER = 265.9424
MEAN_ANOMALY   = 94.1404

EPHEMERIS_TYPE = 0
CLASSIFICATION_TYPE = U
NORAD_CAT_ID   = 81499
ELEMENT_SET_NO = 999
REV_AT_EPOCH   = 49007
BSTAR          = .84694E-3
MEAN_MOTION_DOT = .3087E-4
MEAN_MOTION_DDOT = 0

CCSDS_OMM_VERS = 2.0
CREATION_DATE  = 
ORIGINATOR     = 

OBJECT_NAME    = UNKNOWN
OBJECT_ID      = 
CENTER_NAME    = EARTH
REF_FRAME      = TEME
TIME_SYSTEM    = UTC
MEAN_ELEMENT_THEORY = SGP/SGP4

EPOCH          = 2026-02-02T04:19:45.732288
MEAN_MOTION    = 14.13571924
ECCENTRICITY   = .0234369
INCLINATION    = 98.1956
RA_OF_ASC_NODE = 116.1865
ARG_OF_PERICENTER = 0.0938
MEAN_ANOMALY   = 0.0241

EPHEMERIS_TYPE = 0
CLASSIFICATION_TYPE = U
NORAD_CAT_ID   = 81535
ELEMENT_SET_NO = 999
REV_AT_EPOCH   = 39466
BSTAR          = .34898E-3
MEAN_MOTION_DOT = .813E-5
MEAN_MOTION_DDOT = 0

CCSDS_OMM_VERS = 2.0
CREATION_DATE  = 
ORIGINATOR     = 

OBJECT_NAME    = UNKNOWN
OBJECT_ID      = 
CENTER_NAME    = EARTH
REF_FRAME      = TEME
TIME_SYSTEM    = UTC
MEAN_ELEMENT_THEORY = SGP/SGP4

EPOCH          = 2026-02-01T02:32:19.259808
MEAN_MOTION    = 12.55935859
ECCENTRICITY   = .0020984
INCLINATION    = 101.9644
RA_OF_ASC_NODE = 258.7735
ARG_OF_PERICENTER = 207.6414
MEAN_ANOMALY   = 307.9521

EPHEMERIS_TYPE = 0
CLASSIFICATION_TYPE = U
NORAD_CAT_ID   = 81536
ELEMENT_SET_NO = 999
REV_AT_EPOCH   = 55813
BSTAR          = .35118E-2
MEAN_MOTION_DOT = .532E-5
MEAN_MOTION_DDOT = 0

CCSDS_OMM_VERS = 2.0
CREATION_DATE  = 
ORIGINATOR     = 

OBJECT_NAME    = UNKNOWN
OBJECT_ID      = 
CENTER_NAME    = EARTH
REF_FRAME      = TEME
TIME_SYSTEM    = UTC
MEAN_ELEMENT_THEORY = SGP/SGP4

EPOCH          = 2026-01-28T16:04:37.482528
MEAN_MOTION    = 14.07128740
ECCENTRICITY   = .0074537
INCLINATION    = 71.0404
RA_OF_ASC_NODE = 12.1537
ARG_OF_PERICENTER = 81.4482
MEAN_ANOMALY   = 279.5074

EPHEMERIS_TYPE = 0
CLASSIFICATION_TYPE = U
NORAD_CAT_ID   = 81537
ELEMENT_SET_NO = 999
REV_AT_EPOCH   = 62706
BSTAR          = .19268E-3
MEAN_MOTION_DOT = .285E-5
MEAN_MOTION_DDOT = 0

CCSDS_OMM_VERS = 2.0
CREATION_DATE  = 
ORIGINATOR     = 

OBJECT_NAME    = UNKNOWN
OBJECT_ID      = 
CENTER_NAME    = EARTH
REF_FRAME      = TEME
TIME_SYSTEM    = UTC
MEAN_ELEMENT_THEORY = SGP/SGP4

EPOCH          = 2026-02-02T08:56:58.581600
MEAN_MOTION    = 13.31529639
ECCENTRICITY   = .0245477
INCLINATION    = 67.2939
RA_OF_ASC_NODE = 169.2716
ARG_OF_PERICENTER = 46.3240
MEAN_ANOMALY   = 345.7731

EPHEMERIS_TYPE = 0
CLASSIFICATION_TYPE = U
NORAD_CAT_ID   = 81599
ELEMENT_SET_NO = 999
REV_AT_EPOCH   = 59195
BSTAR          = .1133E-2
MEAN_MOTION_DOT = .579E-5
MEAN_MOTION_DDOT = 0

CCSDS_OMM_VERS = 2.0
CREATION_DATE  = 
ORIGINATOR     = 

OBJECT_NAME    = UNKNOWN
OBJECT_ID      = 
CENTER_NAME    = EARTH
REF_FRAME      = TEME
TIME_SYSTEM    = UTC
MEAN_ELEMENT_THEORY = SGP/SGP4

EPOCH          = 2026-02-03T07:41:41.865216
MEAN_MOTION    = 12.81549431
ECCENTRICITY   = .0167505
INCLINATION    = 56.4380
RA_OF_ASC_NODE = 64.5886
ARG_OF_PERICENTER = 210.6782
MEAN_ANOMALY   = 148.4267

EPHEMERIS_TYPE = 0
CLASSIFICATION_TYPE = U
NORAD_CAT_ID   = 81605
ELEMENT_SET_NO = 999
REV_AT_EPOCH   = 19294
BSTAR          = -.15683E-2
MEAN_MOTION_DOT = -.491E-5
MEAN_MOTION_DDOT = 0

